{"fetched_at":"2026-03-30T06:02:59Z","count":15439,"tles":[{"name":"STARLINK-32198","line1":"1 60321U 24133W   26087.85079087  .00012113  00000+0  42119-3 0  9999","line2":"2 60321  53.1599 208.0798 0001458 257.2613 102.8225 15.30140061 94660","category":"Starlink"}]}